[{"OBJECT_NAME":"STARLINK-31475","OBJECT_ID":"2024-056Q","EPOCH":"2026-03-09T10:35:55.033152","MEAN_MOTION":15.27574143,"ECCENTRICITY":0.00013835,"INCLINATION":43.004,"RA_OF_ASC_NODE":228.8918,"ARG_OF_PERICENTER":247.8741,"MEAN_ANOMALY":112.1964,"EPHEMERIS_TYPE":0,"CLASSIFICATION_TYPE":"U","NORAD_CAT_ID":59310,"ELEMENT_SET_NO":999,"REV_AT_EPOCH":11127,"BSTAR":2.126903e-5,"MEAN_MOTION_DOT":3.23e-6,"MEAN_MOTION_DDOT":0},{"OBJECT_NAME":"COSMOS 2588","OBJECT_ID":"2025-109A","EPOCH":"2026-03-09T19:28:59.107008","MEAN_MOTION":15.29122656,"ECCENTRICITY":0.0005019,"INCLINATION":72.9704,"RA_OF_ASC_NODE":73.5401,"ARG_OF_PERICENTER":308.678,"MEAN_ANOMALY":51.3966,"EPHEMERIS_TYPE":0,"CLASSIFICATION_TYPE":"U","NORAD_CAT_ID":64095,"ELEMENT_SET_NO":999,"REV_AT_EPOCH":4442,"BSTAR":0.00032611,"MEAN_MOTION_DOT":9.169e-5,"MEAN_MOTION_DDOT":0}]
